fName,mName,lName,addressL1,addressL2,addressL3,addressPostCode,addressCounty,schoolYear,schoolSubjects,nameParGar1,nameParGar2,contactDetParGar1,contactDetParGar2
David,C.,Garcia,539 Elm St,Unit 15,Waterford,IO5NN7I,Mayo,5th Year,"Mathematics, PE, English, History",Elizabeth Davis,Michael Thomas,9671468100,7728565906
Thomas,C.,Smith,499 Oak Ave,Unit 8,Galway,LFNYVC1,Waterford,Transition Year,"PE, History, Music, English",Patricia Martinez,Michael Thompson,2913399515,5014020159
Susan,B.,Taylor,664 Cedar Rd,Unit 9,Waterford,61KDLQM,Cork,5th Year,"Mathematics, PE",Robert Martin,David Williams,4636011373,8141373423
Susan,J.,Hernandez,213 Cedar Rd,Apt 7,Dublin,ESBTMZ0,Limerick,5th Year,"Art, Geography",Michael Hernandez,Richard Moore,5599435723,0097927520
Linda,F.,Martin,905 Main St,Unit 11,Dublin,APXDVEK,Limerick,4th Year,"Mathematics, Art",Susan Taylor,William Smith,9986549372,8078061618
Sarah,H.,Rodriguez,132 Elm St,,Galway,MLVPML9,Dublin,1st Year,"English, Geography, Music",Thomas Martinez,Jessica Wilson,9939500044,8321912787
Michael,D.,White,731 Oak Ave,Unit 2,Cork,8IGXXZ6,Cork,Transition Year,"Music, Mathematics, PE",Joseph Williams,Thomas Miller,9792890746,9670574567
Patricia,J.,White,205 Main St,Apt 14,Waterford,F9BM34L,Waterford,6th Year,"English, Music",Sarah Rodriguez,Barbara Smith,7914855235,0748800507
John,C.,Anderson,587 Elm St,,Dublin,VOT7WJZ,Meath,4th Year,"Geography, Music",Susan Rodriguez,Barbara Wilson,0621149293,6663157036
Elizabeth,I.,White,99 Elm St,Apt 3,Cork,CMHH2YE,Kildare,6th Year,"Science, Art, PE, English",Richard Wilson,Susan Martinez,0846939916,0241256636
Elizabeth,C.,Jackson,225 Pine St,Unit 14,Dublin,FYEL56O,Kildare,1st Year,"Mathematics, Geography",Joseph Anderson,Patricia Moore,4770614703,8340366403
Linda,I.,Wilson,186 Elm St,,Waterford,9M2KOYZ,Limerick,1st Year,"Music, Mathematics, Art",Mary Johnson,Thomas Moore,3429519252,2044690244
Charles,F.,Thompson,318 Elm St,Unit 8,Cork,SU1NQIY,Kilkenny,2nd Year,"Mathematics, History, English, Art",Patricia Anderson,Joseph Rodriguez,6107602127,8884378195
Susan,D.,Moore,957 Cedar Rd,Unit 15,Cork,I7JONTU,Wexford,2nd Year,"Mathematics, History, Geography",Charles Anderson,Susan Garcia,8569426954,4467464813
Robert,H.,Smith,672 Main St,Unit 2,Galway,4JRIJMV,Kildare,4th Year,"Art, Mathematics",Jessica White,Susan Williams,4933054225,6414289469
William,E.,Taylor,837 Main St,Apt 8,Galway,ULY3C5Z,Kildare,5th Year,"History, Geography",Charles Wilson,David Miller,5615406262,5179636479
Robert,D.,Thomas,444 Oak Ave,Apt 5,Cork,LB6MFHJ,Wexford,6th Year,"Mathematics, English, History",Sarah Jackson,Thomas Brown,3833892202,8992038283
Jessica,F.,Martinez,45 Elm St,Apt 13,Waterford,VQHQAUJ,Kilkenny,6th Year,"Science, Geography, Music, History",David Miller,Sarah Hernandez,5663692476,9492629087
James,D.,Johnson,426 Pine St,Apt 4,Cork,B0HOIU6,Wexford,6th Year,"Art, English, Music, History",James Garcia,John Miller,7092598028,0604740413
Joseph,J.,Brown,200 Main St,Unit 9,Waterford,DA6QLUA,Kildare,4th Year,"Art, Mathematics",Elizabeth Garcia,Jennifer Thomas,4700959427,2543975246
Elizabeth,B.,Martinez,241 Cedar Rd,,Cork,H76PDE6,Dublin,1st Year,"Music, Science, English, Mathematics",James Garcia,Thomas Rodriguez,3871147918,7019966570
Joseph,F.,Moore,570 Pine St,Unit 9,Waterford,ZOVLXDI,Meath,6th Year,"Music, PE, Science",Mary White,Linda Miller,8095156435,8376314195
Charles,A.,Jones,762 Pine St,Apt 13,Cork,NPOFAMF,Kildare,3rd Year,"Science, English",Jennifer Smith,Thomas Williams,9416955868,8503790665
James,J.,Williams,662 Oak Ave,Apt 11,Galway,K18NVPI,Wexford,1st Year,"Art, Science, History",Barbara Davis,Patricia Garcia,8508457803,8962403931
Linda,I.,Taylor,377 Main St,Unit 3,Cork,R39FHSH,Kildare,Transition Year,"Science, Music, PE, Art",James Taylor,Sarah Johnson,1307979938,7077734796
Jennifer,J.,Williams,570 Cedar Rd,,Cork,4R8Z6CV,Kildare,3rd Year,"Music, Mathematics",Michael Johnson,Sarah Brown,5127725418,5386438581
Robert,B.,Anderson,332 Pine St,Unit 15,Cork,7YVF5JO,Mayo,5th Year,"Science, Music, Geography",David Jackson,Susan Taylor,9413437200,7982150465
Patricia,C.,Rodriguez,413 Elm St,Unit 3,Dublin,YFBIDO2,Waterford,5th Year,"Geography, Art",Mary Taylor,William Moore,4780311154,0639672762
William,H.,Taylor,889 Pine St,,Cork,ZMQ6ZVQ,Kilkenny,6th Year,"Geography, Mathematics, Science, Music",Barbara Miller,William Jones,7443707633,5694405739
Elizabeth,A.,Anderson,498 Elm St,,Dublin,6CFM82N,Kilkenny,2nd Year,"History, Geography, Mathematics, Music",Robert Williams,Michael Garcia,8686220996,7423727081
Susan,I.,Brown,855 Pine St,,Dublin,4YBLNCU,Kildare,5th Year,"History, Geography, Music",John Wilson,Charles Jones,8230235473,3991114422
Susan,F.,Rodriguez,199 Cedar Rd,Unit 13,Cork,ET5YY4V,Waterford,3rd Year,"Geography, English, Art",Michael Moore,Patricia Garcia,0655330240,1887608120
Susan,A.,Wilson,932 Elm St,,Waterford,JS34EJN,Limerick,2nd Year,"English, History",Karen Rodriguez,Karen Brown,4347582129,5156107479
Charles,C.,Thomas,214 Elm St,Unit 15,Waterford,7JVMLNQ,Dublin,Transition Year,"Geography, Music, History",Susan Martinez,Barbara Taylor,6731697728,5767568299
Robert,C.,Garcia,232 Main St,Unit 19,Dublin,TKEOYLW,Galway,6th Year,"Mathematics, Geography, Music, English",Joseph Thompson,Richard Garcia,2558877523,8703586522
Sarah,A.,Anderson,504 Pine St,,Waterford,WGRIJGR,Limerick,6th Year,"Geography, Art, English",Michael Smith,William Rodriguez,0997597281,0611629881
Patricia,F.,Johnson,396 Main St,Apt 19,Dublin,41YASVD,Kilkenny,2nd Year,"English, History, Art, Music",Barbara White,Susan Johnson,2892140562,4953664124
Mary,A.,Hernandez,74 Main St,,Galway,CXT13UM,Meath,Transition Year,"History, Music, Geography, PE",Richard Wilson,Michael Brown,4716533803,6476295790
Jessica,F.,Anderson,962 Oak Ave,Unit 6,Cork,9GESYNL,Dublin,2nd Year,"Mathematics, Music",Elizabeth Rodriguez,David Thomas,7754526872,5870373531
David,C.,Rodriguez,438 Elm St,Unit 19,Waterford,RBT0MZB,Waterford,6th Year,"Geography, Science, Music, Art",Susan Moore,Robert Rodriguez,6882935016,5074926821
Richard,C.,Garcia,232 Oak Ave,Unit 7,Cork,T8QJD1U,Meath,Transition Year,"Science, History, English",Thomas Martin,Elizabeth Martin,5900214403,1741236958
Sarah,C.,Anderson,604 Cedar Rd,Apt 16,Galway,W1DL7VO,Wexford,4th Year,"Music, PE, Mathematics",John Smith,Jennifer White,0476980694,9709844937
Robert,D.,White,899 Main St,Unit 17,Cork,ELUU9XP,Kilkenny,2nd Year,"Music, Science",William Brown,Susan Johnson,5001869819,2313647394
Karen,F.,Martinez,566 Pine St,,Dublin,P7PJ0GV,Kilkenny,2nd Year,"Mathematics, Music",Michael Johnson,John Williams,8902782894,8839736292
Michael,I.,Miller,414 Elm St,Apt 6,Dublin,FRZ5A38,Kilkenny,1st Year,"English, History",William Thompson,Barbara Moore,7582922498,6179662744
Patricia,F.,Martin,119 Cedar Rd,,Dublin,3CFR5G0,Galway,6th Year,"Science, Geography, History, Art",Linda Martinez,David Smith,4084466421,1547522599
William,H.,Martinez,333 Cedar Rd,Unit 13,Dublin,9AL8BU6,Kilkenny,5th Year,"Mathematics, Science, Music, English",Mary Moore,Jessica Johnson,9882462745,7897655215
Michael,G.,Davis,566 Main St,Apt 11,Waterford,NYOIQMB,Kilkenny,3rd Year,"Science, English",David Jones,Mary Anderson,9610973265,5157051632
Joseph,H.,Wilson,900 Cedar Rd,,Dublin,7N7JTFS,Meath,6th Year,"Geography, English, Science, PE",William Martinez,Sarah Miller,3100608823,7000442181
Jennifer,I.,Thomas,903 Main St,,Galway,ENRW9P7,Wexford,2nd Year,"PE, Geography",Richard Martinez,Barbara Miller,2448500520,2668244093
James,A.,Thomas,917 Cedar Rd,Unit 2,Limerick,0B32IGQ,Kildare,2nd Year,"English, History, Music",John Taylor,Susan Williams,2477117685,1804853439
John,D.,Thompson,315 Cedar Rd,,Limerick,TF3R4UC,Galway,1st Year,"Art, Music, Mathematics, Geography",William Johnson,Jessica Miller,0244401898,7710803428
John,B.,Brown,41 Oak Ave,,Galway,RQZ80KJ,Wexford,4th Year,"Art, English, History",Mary Smith,Michael Taylor,9861610792,9183716467
John,B.,Anderson,764 Main St,Apt 9,Dublin,1BD8NVJ,Kildare,1st Year,"History, Mathematics, English",Jessica Martin,Michael Wilson,3888315146,1960841508
Barbara,C.,Williams,358 Oak Ave,,Limerick,O133J7I,Kildare,4th Year,"PE, Art",Barbara Miller,James Hernandez,2769391105,6878488199
Karen,F.,Miller,417 Oak Ave,Unit 9,Dublin,5QU2D8P,Kildare,1st Year,"History, Mathematics, English, Art",Charles Smith,Charles Martinez,7502085028,9083208559
Linda,I.,Smith,115 Main St,Unit 11,Galway,V5NLUY3,Wexford,2nd Year,"Music, Mathematics",Thomas Smith,Susan Hernandez,5089594840,3845238230
Jessica,D.,Anderson,733 Main St,Apt 5,Limerick,C6U1HZX,Kilkenny,3rd Year,"Geography, Mathematics, English",Joseph Jackson,Jennifer Miller,0315220887,5290423323
David,C.,Miller,381 Pine St,,Galway,23FVB69,Limerick,6th Year,"Art, Geography",Jennifer White,William Smith,0558154481,0670327132
Jennifer,H.,Jones,715 Pine St,Apt 5,Galway,XR3NILE,Limerick,4th Year,"History, Science",William Anderson,Linda White,1902622929,6313190702
Susan,H.,Wilson,582 Cedar Rd,Apt 9,Galway,X3T1QIU,Galway,4th Year,"Geography, English, Music, PE",Joseph Jackson,Michael Martinez,3590977864,6064223950
Robert,I.,Taylor,345 Cedar Rd,Unit 5,Waterford,MQPO4X0,Wexford,2nd Year,"Mathematics, English, History",Patricia Thompson,Mary Martin,0476536946,3318541329
Thomas,E.,Thomas,787 Main St,Apt 3,Limerick,2GI14HV,Mayo,5th Year,"History, PE, Art, Mathematics",Joseph Jones,James Anderson,6328747574,1475953047
Charles,D.,Williams,376 Oak Ave,Apt 1,Galway,7V3RM5Q,Limerick,5th Year,"History, English, Science, Geography",Susan Rodriguez,Robert Thomas,0688902318,0674019463
Jessica,F.,Brown,865 Pine St,Apt 19,Cork,2U83ES1,Mayo,4th Year,"History, Art",Jessica Jackson,William Wilson,8789757486,9078597496
Susan,G.,Johnson,695 Oak Ave,Apt 7,Limerick,JYUJRLL,Meath,Transition Year,"Geography, English, Mathematics",Jennifer Moore,Karen Wilson,7571372788,1315594767
Patricia,G.,Jones,125 Cedar Rd,,Cork,P2Q4ZV6,Limerick,4th Year,"English, Science, PE, Mathematics",Richard Wilson,David Martinez,5233865158,2003687977
Jessica,A.,Martin,325 Oak Ave,Apt 6,Galway,Y6XEDU9,Limerick,6th Year,"Art, Music, Geography, History",Jennifer Williams,Linda Garcia,7650247288,7296857751
William,C.,Miller,731 Pine St,Apt 3,Cork,PDVGRWZ,Galway,5th Year,"Mathematics, Science, Music, Art",David Williams,Linda Wilson,9192521795,5074190018
Patricia,C.,Davis,545 Pine St,,Limerick,JQ35NVK,Kildare,3rd Year,"Science, English, Geography, History",Jennifer White,Susan Garcia,9762248777,0459405104
Susan,G.,Martin,643 Pine St,Apt 7,Cork,Y3FN1N8,Limerick,1st Year,"Geography, English",Robert Moore,Jessica Thomas,9808584702,3258283865
Linda,F.,Brown,752 Pine St,,Galway,HKYT7XT,Limerick,2nd Year,"Geography, Mathematics",Robert Anderson,Mary Brown,7617212676,2122843778
James,A.,Garcia,468 Cedar Rd,Apt 18,Dublin,PLQBCZF,Galway,6th Year,"English, Art, Mathematics",Joseph Wilson,Jessica Jackson,7067332179,3920164447
Thomas,H.,Martin,782 Elm St,Apt 16,Galway,H7P2E1Q,Waterford,2nd Year,"Art, Mathematics, Music, Geography",Charles Williams,Mary Martin,7385842695,2971630132
Sarah,J.,White,296 Elm St,,Waterford,3IGA900,Kildare,2nd Year,"Geography, English, PE",Thomas Thomas,John Johnson,9165161585,8832392832
William,C.,Anderson,735 Elm St,Unit 7,Dublin,1E1LBU2,Wexford,2nd Year,"English, PE, Science, Mathematics",Patricia Martin,Karen Martinez,2110177004,6915877066
Robert,A.,White,899 Elm St,Unit 15,Limerick,GIRSDOU,Wexford,5th Year,"Music, PE",Joseph Davis,Mary Rodriguez,6025865783,0529268765
Patricia,F.,Taylor,732 Oak Ave,Apt 16,Waterford,ZJZTGZR,Meath,3rd Year,"Art, History, Science, Music",Michael Garcia,Jessica Moore,2138498522,6412977235
Mary,H.,Wilson,878 Pine St,Apt 9,Cork,8ZDQ4XF,Limerick,5th Year,"Art, English, Music",Joseph Rodriguez,Karen White,7224092343,7666199482
Charles,A.,Smith,607 Main St,Apt 10,Cork,3IQUXBN,Limerick,6th Year,"Music, Geography, English, Art",Patricia Jones,Robert Thompson,1339158891,7959179317
Karen,C.,Martin,568 Elm St,Apt 8,Cork,C4A68CX,Dublin,3rd Year,"Mathematics, English",Susan Thompson,Richard Anderson,1786994277,0700902727
Jessica,G.,White,704 Pine St,Unit 4,Galway,OTNB9D7,Galway,5th Year,"Geography, Mathematics, History",Karen Martinez,Karen Miller,1773696738,0826800404
Michael,H.,Taylor,560 Cedar Rd,Unit 6,Galway,COH9027,Kildare,5th Year,"Science, PE",Mary Rodriguez,Susan Jones,7446005683,8976004227
Patricia,B.,Anderson,787 Cedar Rd,,Galway,MK93VFA,Meath,Transition Year,"Science, Mathematics, Geography, PE",Linda Jackson,Barbara Johnson,7249787672,8089798751
Thomas,A.,Anderson,484 Cedar Rd,,Waterford,5O7Q5JS,Mayo,4th Year,"English, Art, Music",William Moore,Barbara Williams,6895568732,6709479059
David,D.,Smith,653 Cedar Rd,Apt 6,Galway,8Q3E37U,Limerick,Transition Year,"Music, Geography",Susan Smith,Robert Miller,4084915084,5316265803
Charles,C.,Jones,869 Pine St,Apt 16,Dublin,61LWPGI,Meath,6th Year,"Art, PE, English",Jessica White,James Miller,4498071838,1512724609
Richard,G.,Jackson,211 Pine St,Apt 16,Galway,O6X4YIS,Meath,3rd Year,"Art, Music, PE, Science",James Jones,Barbara Martin,9945622565,8584181634
Barbara,D.,Wilson,715 Oak Ave,Unit 15,Waterford,5EBW473,Kilkenny,Transition Year,"PE, English",John Hernandez,Robert Thomas,8763124945,2089766375
Charles,A.,Taylor,600 Elm St,Apt 4,Cork,72SE8VL,Wexford,Transition Year,"Music, English, Science",Mary Taylor,Linda Johnson,7044370206,6926504807
James,G.,Rodriguez,976 Cedar Rd,,Cork,OS78O5S,Kilkenny,5th Year,"Music, Art, Geography",Jessica Miller,William Thompson,9857534193,3600070752
David,C.,Anderson,402 Pine St,Unit 3,Galway,J342J9K,Kilkenny,5th Year,"English, PE",Jessica Thompson,Jennifer Martin,7932670320,7057339713
Sarah,A.,Garcia,185 Elm St,Unit 13,Waterford,LZEPP7B,Limerick,6th Year,"Art, Science",William Taylor,Sarah Anderson,2307064024,7105205442
Karen,A.,Smith,857 Oak Ave,Apt 13,Cork,CML7448,Mayo,Transition Year,"Geography, PE, Science, Mathematics",William Wilson,Mary Martin,9028915284,6203902849
Linda,J.,Thompson,502 Main St,Apt 10,Cork,8P2Z0RQ,Galway,5th Year,"History, Music, Art, Science",Thomas Hernandez,David White,1171410015,0524968604
Susan,G.,Moore,304 Cedar Rd,,Dublin,F8LYX1Q,Limerick,4th Year,"Geography, History",William Garcia,Susan Davis,8987601881,7210785446
Joseph,J.,Miller,882 Pine St,Apt 17,Dublin,M4PV2BA,Limerick,1st Year,"PE, Art, Music, English",Barbara Wilson,Charles Martinez,7930321366,1390077150
David,E.,Taylor,315 Main St,Apt 15,Waterford,U4X2HZR,Dublin,Transition Year,"History, Science, Music, English",Susan White,Robert White,5091129811,7127171082
Sarah,G.,Thompson,902 Pine St,Apt 9,Limerick,R9J3ZZ9,Waterford,6th Year,"History, Science, PE, Art",Mary Hernandez,James Jones,1633126031,8511592960
Susan,G.,Anderson,146 Pine St,Unit 5,Cork,Y390SUL,Meath,2nd Year,"Science, Mathematics",Joseph Johnson,Jessica Jones,6651285289,5250221015
